{
  "type": "FeatureCollection",
  "features": [
    {
      "type": "Feature",
      "properties": {
        "norad_id": 66497,
        "name": "STARLINK-35899",
        "group": "last-30-days",
        "lat": -23.112995820065557,
        "lon": 8.282588685215856,
        "alt_km": 395.2436479103335,
        "timestamp": "2025-12-06T14:35:35.909929+00:00",
        "meta_object_name": "STARLINK-35899",
        "meta_object_id": "2025-263N",
        "meta_epoch": "2025-12-06T08:00:01.999872",
        "meta_mean_motion": 15.59100478,
        "meta_eccentricity": 0.00016754,
        "meta_inclination": 43.0002,
        "meta_ra_of_asc_node": 162.6496,
        "meta_arg_of_pericenter": 270.3734,
        "meta_mean_anomaly": 201.6693,
        "meta_ephemeris_type": 0,
        "meta_classification_type": "U",
        "meta_norad_cat_id": 66497,
        "meta_element_set_no": 999,
        "meta_rev_at_epoch": 460,
        "meta_bstar": -0.028857774,
        "meta_mean_motion_dot": -0.02028529,
        "meta_mean_motion_ddot": 0,
        "tle_line1": "1 66497U 25263N   25340.33335648 -.02028529  00000+0 -28858-1 0  9990",
        "tle_line2": "2 66497  43.0002 162.6496 0001675 270.3734 201.6693 15.59100478  4609"
      },
      "geometry": {
        "type": "Point",
        "coordinates": [
          8.282588685215856,
          -23.112995820065557
        ]
      }
    },
    {
      "type": "Feature",
      "properties": {
        "norad_id": 66498,
        "name": "STARLINK-35907",
        "group": "last-30-days",
        "lat": -24.268146681233564,
        "lon": 9.95365796076834,
        "alt_km": 395.3942118560162,
        "timestamp": "2025-12-06T14:35:35.909939+00:00",
        "meta_object_name": "STARLINK-35907",
        "meta_object_id": "2025-263P",
        "meta_epoch": "2025-12-06T08:00:01.999872",
        "meta_mean_motion": 15.59095223,
        "meta_eccentricity": 0.00014585,
        "meta_inclination": 42.9998,
        "meta_ra_of_asc_node": 162.6443,
        "meta_arg_of_pericenter": 270.6933,
        "meta_mean_anomaly": 203.2735,
        "meta_ephemeris_type": 0,
        "meta_classification_type": "U",
        "meta_norad_cat_id": 66498,
        "meta_element_set_no": 999,
        "meta_rev_at_epoch": 460,
        "meta_bstar": -0.028799182,
        "meta_mean_motion_dot": -0.0202441,
        "meta_mean_motion_ddot": 0,
        "tle_line1": "1 66498U 25263P   25340.33335648 -.02024410  00000+0 -28799-1 0  9990",
        "tle_line2": "2 66498  42.9998 162.6443 0001458 270.6933 203.2735 15.59095223  4603"
      },
      "geometry": {
        "type": "Point",
        "coordinates": [
          9.95365796076834,
          -24.268146681233564
        ]
      }
    },
    {
      "type": "Feature",
      "properties": {
        "norad_id": 66499,
        "name": "STARLINK-35816",
        "group": "last-30-days",
        "lat": -26.515763437691565,
        "lon": 13.38090501683486,
        "alt_km": 395.4924231700088,
        "timestamp": "2025-12-06T14:35:35.909948+00:00",
        "meta_object_name": "STARLINK-35816",
        "meta_object_id": "2025-263Q",
        "meta_epoch": "2025-12-06T08:00:01.999872",
        "meta_mean_motion": 15.59096824,
        "meta_eccentricity": 0.00013822,
        "meta_inclination": 43,
        "meta_ra_of_asc_node": 162.635,
        "meta_arg_of_pericenter": 268.7272,
        "meta_mean_anomaly": 209.0723,
        "meta_ephemeris_type": 0,
        "meta_classification_type": "U",
        "meta_norad_cat_id": 66499,
        "meta_element_set_no": 999,
        "meta_rev_at_epoch": 460,
        "meta_bstar": -0.028811407,
        "meta_mean_motion_dot": -0.02025212,
        "meta_mean_motion_ddot": 0,
        "tle_line1": "1 66499U 25263Q   25340.33335648 -.02025212  00000+0 -28811-1 0  9997",
        "tle_line2": "2 66499  43.0000 162.6350 0001382 268.7272 209.0723 15.59096824  4606"
      },
      "geometry": {
        "type": "Point",
        "coordinates": [
          13.38090501683486,
          -26.515763437691565
        ]
      }
    },
    {
      "type": "Feature",
      "properties": {
        "norad_id": 66500,
        "name": "STARLINK-35894",
        "group": "last-30-days",
        "lat": -7.9976582574479025,
        "lon": -10.24780899492528,
        "alt_km": 405.8452062841661,
        "timestamp": "2025-12-06T14:35:35.909960+00:00",
        "meta_object_name": "STARLINK-35894",
        "meta_object_id": "2025-263R",
        "meta_epoch": "2025-12-06T08:00:01.999872",
        "meta_mean_motion": 15.55429451,
        "meta_eccentricity": 0.00014633,
        "meta_inclination": 42.9998,
        "meta_ra_of_asc_node": 162.6973,
        "meta_arg_of_pericenter": 274.2351,
        "meta_mean_anomaly": 178.1997,
        "meta_ephemeris_type": 0,
        "meta_classification_type": "U",
        "meta_norad_cat_id": 66500,
        "meta_element_set_no": 999,
        "meta_rev_at_epoch": 460,
        "meta_bstar": -0.040836313,
        "meta_mean_motion_dot": -0.02532979,
        "meta_mean_motion_ddot": 0,
        "tle_line1": "1 66500U 25263R   25340.33335648 -.02532979  00000+0 -40836-1 0  9994",
        "tle_line2": "2 66500  42.9998 162.6973 0001463 274.2351 178.1997 15.55429451  4605"
      },
      "geometry": {
        "type": "Point",
        "coordinates": [
          -10.24780899492528,
          -7.9976582574479025
        ]
      }
    },
    {
      "type": "Feature",
      "properties": {
        "norad_id": 66501,
        "name": "STARLINK-35897",
        "group": "last-30-days",
        "lat": -27.603566094697165,
        "lon": 15.136707948865054,
        "alt_km": 395.61149862126604,
        "timestamp": "2025-12-06T14:35:35.909971+00:00",
        "meta_object_name": "STARLINK-35897",
        "meta_object_id": "2025-263S",
        "meta_epoch": "2025-12-06T08:00:01.999872",
        "meta_mean_motion": 15.59095646,
        "meta_eccentricity": 0.00016263,
        "meta_inclination": 42.9996,
        "meta_ra_of_asc_node": 162.6299,
        "meta_arg_of_pericenter": 278.0742,
        "meta_mean_anomaly": 201.6401,
        "meta_ephemeris_type": 0,
        "meta_classification_type": "U",
        "meta_norad_cat_id": 66501,
        "meta_element_set_no": 999,
        "meta_rev_at_epoch": 460,
        "meta_bstar": -0.02877284,
        "meta_mean_motion_dot": -0.02022948,
        "meta_mean_motion_ddot": 0,
        "tle_line1": "1 66501U 25263S   25340.33335648 -.02022948  00000+0 -28773-1 0  9991",
        "tle_line2": "2 66501  42.9996 162.6299 0001626 278.0742 201.6401 15.59095646  4603"
      },
      "geometry": {
        "type": "Point",
        "coordinates": [
          15.136707948865054,
          -27.603566094697165
        ]
      }
    },
    {
      "type": "Feature",
      "properties": {
        "norad_id": 66502,
        "name": "STARLINK-35922",
        "group": "last-30-days",
        "lat": -30.739137892833384,
        "lon": 20.645133256087043,
        "alt_km": 395.6354446240375,
        "timestamp": "2025-12-06T14:35:35.909980+00:00",
        "meta_object_name": "STARLINK-35922",
        "meta_object_id": "2025-263T",
        "meta_epoch": "2025-12-06T08:00:01.999872",
        "meta_mean_motion": 15.59093583,
        "meta_eccentricity": 0.00015216,
        "meta_inclination": 42.9996,
        "meta_ra_of_asc_node": 162.6148,
        "meta_arg_of_pericenter": 270.9003,
        "meta_mean_anomaly": 214.5691,
        "meta_ephemeris_type": 0,
        "meta_classification_type": "U",
        "meta_norad_cat_id": 66502,
        "meta_element_set_no": 999,
        "meta_rev_at_epoch": 460,
        "meta_bstar": -0.028763209,
        "meta_mean_motion_dot": -0.02022137,
        "meta_mean_motion_ddot": 0,
        "tle_line1": "1 66502U 25263T   25340.33335648 -.02022137  00000+0 -28763-1 0  9991",
        "tle_line2": "2 66502  42.9996 162.6148 0001521 270.9003 214.5691 15.59093583  4604"
      },
      "geometry": {
        "type": "Point",
        "coordinates": [
          20.645133256087043,
          -30.739137892833384
        ]
      }
    },
    {
      "type": "Feature",
      "properties": {
        "norad_id": 66503,
        "name": "STARLINK-35917",
        "group": "last-30-days",
        "lat": -32.69235068178026,
        "lon": 24.510584067490306,
        "alt_km": 395.7108673582261,
        "timestamp": "2025-12-06T14:35:35.909991+00:00",
        "meta_object_name": "STARLINK-35917",
        "meta_object_id": "2025-263U",
        "meta_epoch": "2025-12-06T08:00:01.999872",
        "meta_mean_motion": 15.5909792,
        "meta_eccentricity": 0.00014771,
        "meta_inclination": 42.9998,
        "meta_ra_of_asc_node": 162.6059,
        "meta_arg_of_pericenter": 270.4726,
        "meta_mean_anomaly": 218.8278,
        "meta_ephemeris_type": 0,
        "meta_classification_type": "U",
        "meta_norad_cat_id": 66503,
        "meta_element_set_no": 999,
        "meta_rev_at_epoch": 460,
        "meta_bstar": -0.028834523,
        "meta_mean_motion_dot": -0.02026777,
        "meta_mean_motion_ddot": 0,
        "tle_line1": "1 66503U 25263U   25340.33335648 -.02026777  00000+0 -28835-1 0  9996",
        "tle_line2": "2 66503  42.9998 162.6059 0001477 270.4726 218.8278 15.59097920  4602"
      },
      "geometry": {
        "type": "Point",
        "coordinates": [
          24.510584067490306,
          -32.69235068178026
        ]
      }
    }
  ]
}